#aV2013 10  2  0  0  0.00000000     288 DD+AD WGS84 FIT  NGA
## 1760 259200.00000000   300.00000000 56567 0.0000000000000
+   31     1  2  3  4  5  6  7  8  9 10 11 12 13 14 15 16 17
+         18 19 20 21 22 23 24 25 26 27 28 29 31 32  0  0  0
+          0  0  0  0  0  0  0  0  0  0  0  0  0  0  0  0  0
+          0  0  0  0  0  0  0  0  0  0  0  0  0  0  0  0  0
+          0  0  0  0  0  0  0  0  0  0  0  0  0  0  0  0  0
++         2  2  2  2  2  2  2  2  2  2  2  2  2  2  2  2  2
++         2  2  2  2  2  2  2  2  2  2  2  2  2  2  2  0  0
++         0  0  0  0  0  0  0  0  0  0  0  0  0  0  0  0  0
++         0  0  0  0  0  0  0  0  0  0  0  0  0  0  0  0  0
++         0  0  0  0  0  0  0  0  0  0  0  0  0  0  0  0  0
%c cc cc ccc ccc cccc cccc cccc cccc ccccc ccccc ccccc ccccc
%c cc cc ccc ccc cccc cccc cccc cccc ccccc ccccc ccccc ccccc
%f  0.0000000  0.000000000  0.00000000000  0.000000000000000
%f  0.0000000  0.000000000  0.00000000000  0.000000000000000
%i    0    0    0    0      0      0      0      0         0
%i    0    0    0    0      0      0      0      0         0
/*      NGA, ST. LOUIS,MO.                                  
/*   EPHEMERIS COMPUTED FROM  1 DAYS OF DATA
/*   EPOCHA SMOOTHER  
/* CCCCCCCCCCCCCCCCCCCCCCCCCCCCCCCCCCCCCCCCCCCCCCCCCCCCCCCCC
*  2013 10  2  8 15  0.00000000                                                 
P  1 -21292.050076 -13747.460155  -8155.835347     80.800672                    
V  1  10533.867445   1114.205665 -29380.640959      0.038726                    
P  2   -317.933865  16293.665611  21265.370888    454.006311                    
V  2 -25238.500343  -8036.324969   5337.689916      0.017609                    
P  3   2668.702476 -21173.722933 -16233.901502    267.196614                    
V  3  14828.674536 -13308.133587  20665.721289      0.051353                    
P  4 -15050.400234   9756.104046  19369.371572      1.495448                    
V  4 -23351.225773  -9690.184568 -12801.094984      0.005148                    
P  5   1254.029403  25988.822206   4881.500256   -399.352470                    
V  5  -4351.471146  -5574.259690  30757.265830      0.002810                    
P  6  10168.022309 -21448.984373 -11456.552757     82.277591                    
V  6  12860.688231  -8017.015687  26668.598191      0.186570                    
P  7 -25438.871504  -5118.351530  -6359.851622    264.986088                    
V  7  -6817.562138  -4765.684030  30497.520055      0.041667                    
P  8 -21239.517093   1119.243297 -16163.254330      8.822704                    
V  8 -17984.300254  -9773.098357  22179.265995      0.002060                    
P  9 -20913.540743   4152.890279 -16451.880851    272.568772                    
V  9 -18249.770481  -7776.975496  21826.679599      0.027748                    
P 10 -10613.501688  15833.401407  18011.024334    -96.578291                    
V 10  -5971.671799 -23041.163657  16875.248542     -0.013301                    
P 11 -16386.594613 -13857.392622 -16265.707455   -424.969193                    
V 11  20078.470473  -2068.571030 -18767.424178     -0.034864                    
P 12  10815.483366  21491.088971  11433.656777    159.692220                    
V 12    519.443217  14559.797198 -27543.981311      0.022100                    
P 13 -21098.241723   1418.165191  16030.861663     74.208684                    
V 13  16077.641603 -12799.863036  21973.846090     -0.038150                    
P 14  21341.141319 -15670.067307     91.070799    214.389280                    
V 14   1406.754674   2171.896112 -32110.347219     -0.009407                    
P 15   8227.510236  13576.733332 -21299.791655   -139.929315                    
V 15 -20442.965099  17782.645798   3708.357325     -0.018858                    
P 16    -51.227926 -25915.242056   4898.159620   -245.456392                    
V 16   3025.278809   5965.264424  31721.959393      0.008615                    
P 17 -21413.022663  15394.150916  -1508.488876    -27.029668                    
V 17    -28.949752  -3610.848804 -31953.469211     -0.037127                    
P 18  16056.479446   1265.120850 -20731.610786    277.156353                    
V 18   4516.511499  27030.575654   4706.582252      0.020286                    
P 19  -3633.764943 -15526.927161 -21289.561573   -408.391196                    
V 19  22432.047616 -14741.449097   7378.901863     -0.027551                    
P 20 -14812.183246 -17018.040849  13896.747409    126.435167                    
V 20  -1393.208583 -18183.277351 -23374.688975      0.026749                    
P 21  25210.812945   2500.274606  -8185.364665   -321.552651                    
V 21   9396.417182   6691.982444  28415.602788     -0.019097                    
P 22  12586.887763 -12632.936413 -19440.412888    187.684541                    
V 22   6170.661649  24589.471149 -12007.079539      0.018283                    
P 23 -14785.855820  -7126.279327  21043.869288     42.955941                    
V 23  20008.861571 -17319.382650   7828.612505     -0.034351                    
P 24  18440.682462  15139.500293 -11730.072138    -14.765071                    
V 24 -14835.376631  -2621.365592 -26665.627137     -0.007348                    
P 25  15310.347049   9032.543885  19708.503564    153.343187                    
V 25   3628.517514  24839.986513 -14065.210851      0.038772                    
P 26  -6677.443501  19148.101734 -17621.695268    218.256473                    
V 26 -18213.317806  10969.060433  19851.433720      0.187828                    
P 27   7834.260873 -20476.710427 -14994.374087    -43.248422                    
V 27  15801.269958 -10795.242735  23027.509434     -0.043219                    
P 28 -12951.414961   8580.884711 -20924.715196    297.265553                    
V 28  -4097.515270 -27633.050071  -8723.246002      0.030942                    
P 29  19212.249861   1203.156374  18320.401943    475.416755                    
V 29 -17518.323169  15254.794006  17442.575683      0.031454                    
P 31  13273.234583  -9941.266254  20983.280757    327.071696                    
V 31  24154.272621   9976.835563 -10362.023013      0.007669                    
P 32  -7469.862975 -24808.881598   7113.741209   -544.125035                    
V 32   1723.419610  -8979.866954 -29422.027679      0.032871                    
EOF
